satname,norad_id,inclination_deg,eccentricity,mean_motion_rev_per_day,perigee_km,apogee_km,l1,l2
STARLINK-1168,45072,53.0537,0.0001208,15.06383492,546.4255648250437,548.0987412604181,1 45072U 20006AE  25303.22271614 -.00001502  00000+0 -82019-4 0  9997,2 45072  53.0537 132.3064 0001208  88.2834 271.8294 15.06383492317078
STARLINK-1172,45074,53.0521,0.000114,15.06399818,546.4226259429261,548.0016055413153,1 45074U 20006AG  25303.23375740  .00001969  00000+0  15105-3 0  9991,2 45074  53.0521 132.2598 0001140  88.4491 271.6628 15.06399818317078
STARLINK-1153,45080,53.0519,0.0001368,15.06415318,546.2172296119279,548.1119921326617,1 45080U 20006AN  25302.81357169  .00006874  00000+0  47969-3 0  9999,2 45080  53.0519 134.1449 0001368  84.8547 275.2598 15.06415318317016
STARLINK-1151,45081,53.0537,0.0001245,15.06387236,546.3884672702361,548.1128888020676,1 45081U 20006AP  25303.26325473 -.00004156  00000+0 -26035-3 0  9997,2 45081  53.0537 132.1998 0001245  97.1527 262.9604 15.06387236317088
STARLINK-1190,45083,53.039,0.000299,15.90004213,300.2736171325132,304.26850115188154,1 45083U 20006AR  25303.91668980  .00589229  00000+0  17984-2 0  9993,2 45083  53.0390  80.2832 0002990 269.4863 206.8285 15.90004213  6050
STARLINK-1185,45087,53.0539,0.0001331,15.06401781,546.2843362686308,548.127862601701,1 45087U 20006AV  25303.17293432  .00000275  00000+0  37336-4 0  9995,2 45087  53.0539 112.5284 0001331  87.2018 272.9123 15.06401781317356
STARLINK-1183,45088,53.051,0.000127,15.06395781,546.3449676867576,548.1040095048602,1 45088U 20006AW  25303.19505738  .00001310  00000+0  10680-3 0  9996,2 45088  53.0510 112.4311 0001270  88.3132 271.8002 15.06395781317353
STARLINK-1176,45090,53.0378,0.0008454,16.18409668,218.29197582188863,229.45465486306966,1 45090U 20006AY  25303.74233793  .01654171  11788-4  93574-3 0  9992,2 45090  53.0378  38.8113 0008454 357.5501   2.5493 16.18409668318438
STARLINK-1142,45093,53.0345,0.0004286,15.61228719,381.2084382237217,387.0050335541264,1 45093U 20006BB  25303.91668980  .00140119  00000+0  16013-2 0  9997,2 45093  53.0345  42.6929 0004286 341.6976 207.2754 15.61228719  5971
STARLINK-1152,45096,53.0467,0.0007127,15.23861634,489.3079368952185,499.1037744016594,1 45096U 20006BE  25303.80509647  .00030729  00000+0  12653-2 0  9993,2 45096  53.0467  91.9927 0007127 165.2594 194.8611 15.23861634317692
STARLINK-1184,45098,53.0515,0.0001415,15.06408379,546.2059444419237,548.1658108162928,1 45098U 20006BG  25302.87805684  .00001141  00000+0  95456-4 0  9991,2 45098  53.0515 113.8546 0001415  97.7893 262.3257 15.06408379317303
STARLINK-1193,45100,53.0537,0.0001351,15.06402226,546.2691219088047,548.1403492457575,1 45100U 20006BJ  25302.87437144  .00000908  00000+0  79844-4 0  9990,2 45100  53.0537 113.8689 0001351  89.0892 271.0252 15.06402226317308
STARLINK-1143,45179,53.0533,0.0008775,15.40610366,438.32006397916393,450.29345277511675,1 45179U 20012B   25303.91668980  .00049419  00000+0  11963-2 0  9999,2 45179  53.0533 233.0246 0008775  53.4346 213.1606 15.40610366  5779
STARLINK-1202,45183,53.0552,0.000165,15.06397975,546.075080742472,548.3604478146826,1 45183U 20012F   25303.20242443 -.00000058  00000+0  15038-4 0  9994,2 45183  53.0552 272.3999 0001650  98.8918 261.2258 15.06397975315174
STARLINK-1216,45185,53.0578,0.0001379,15.06403965,546.2444019206359,548.1544097013584,1 45185U 20012H   25303.19504521  .00000056  00000+0  22659-4 0  9996,2 45185  53.0578 272.4322 0001379  95.6926 264.4220 15.06403965315112
STARLINK-1225,45187,53.0538,0.0001178,15.06393929,546.4143564893766,548.0459729933882,1 45187U 20012K   25303.21348320  .00000328  00000+0  40891-4 0  9994,2 45187  53.0538 272.3465 0001178  82.9305 277.1818 15.06393929315161
STARLINK-1230,45189,53.0551,0.0001477,15.06393959,546.207196078436,548.2529495117406,1 45189U 20012M   25303.21717111 -.00000186  00000+0  63961-5 0  9991,2 45189  53.0551 272.3367 0001477  98.9477 261.1679 15.06393959312391
STARLINK-1234,45190,53.0525,0.0002514,15.35871034,456.61581829480747,460.0531961686429,1 45190U 20012N   25303.76283272  .00073316  00000+0  20608-2 0  9991,2 45190  53.0525 227.0404 0002514  97.4364 262.6924 15.35871034315754
STARLINK-1269,45197,53.0561,0.0001797,15.0638523,546.0123329603075,548.5013195014544,1 45197U 20012V   25303.22822915 -.00001926  00000+0 -11045-3 0  9998,2 45197  53.0561 272.2876 0001797  88.8593 271.2602 15.06385230315144
STARLINK-1154,45198,53.054,0.0001515,15.06392477,546.1854211460586,548.2838087453874,1 45198U 20012W   25303.15266636  .00000710  00000+0  66556-4 0  9999,2 45198  53.0540 252.6235 0001515 102.0848 258.0311 15.06392477315380
STARLINK-1199,45201,53.054,0.0001365,15.06399885,546.2666002704673,548.157220523005,1 45201U 20012Z   25303.82718193  .00000166  00000+0  30051-4 0  9994,2 45201  53.0540 249.5949 0001365  82.3473 277.7671 15.06399885315544
STARLINK-1209,45206,53.053,0.0001881,15.30166974,474.02454680286974,476.6028149490148,1 45206U 20012AE  25303.81893441 -.00000420  00000+0 -20301-5 0  9991,2 45206  53.0530 227.3494 0001881  95.7985 264.3228 15.30166974314903
STARLINK-1210,45207,53.0231,0.0012923,15.55996134,390.5001074316433,408.016963933168,1 45207U 20012AF  25302.96234883  .00060164  00000+0  84725-3 0  9993,2 45207  53.0231 193.8615 0012923  60.8472 299.3830 15.55996134316250
STARLINK-1231,45212,53.0496,0.0006368,15.12275525,524.8636164520549,533.660880134682,1 45212U 20012AL  25303.84528751  .00056440  00000+0  32152-2 0  9995,2 45212  53.0496 247.8779 0006368  44.4342 315.7159 15.12275525315523
STARLINK-1271,45217,53.0556,0.0001737,15.06384103,546.0573388745588,548.4632218897641,1 45217U 20012AR  25303.14899119 -.00000390  00000+0 -73149-5 0  9991,2 45217  53.0556 252.6365 0001737  96.7604 263.3583 15.06384103315442
STARLINK-1191,45222,53.0538,0.000138,15.06420427,546.1932633712595,548.1046422942409,1 45222U 20012AW  25303.82166113  .00015051  00000+0  10266-2 0  9999,2 45222  53.0538 229.6189 0001380 102.3628 257.7516 15.06420427315825
STARLINK-1212,45223,53.055,0.0001471,15.06399297,546.1949934430513,548.2324316226777,1 45223U 20012AX  25303.04401285  .00000855  00000+0  76260-4 0  9990,2 45223  53.0550 233.7661 0001471 101.6237 258.4917 15.06399297315700
STARLINK-1215,45225,53.0541,0.0001728,15.0640831,545.9893932724217,548.382784932015,1 45225U 20012AZ  25303.79586417  .00017284  00000+0  11761-2 0  9992,2 45225  53.0541 229.7350 0001728  78.6978 281.4205 15.06408310315772
STARLINK-1221,45227,53.0675,0.0002061,15.36666083,454.56773154609346,457.384753024563,1 45227U 20012BB  25302.88888509  .00018199  00000+0  51032-3 0  9992,2 45227  53.0675 166.9768 0002061 350.2682   9.8280 15.36666083316568
STARLINK-1222,45228,53.0547,0.0001396,15.06408142,546.219828818219,548.1533791684542,1 45228U 20012BC  25303.76268272 -.00000720  00000+0 -29463-4 0  9997,2 45228  53.0547 229.8797 0001396 115.2092 244.9042 15.06408142315702
STARLINK-1226,45229,53.0532,0.000132,15.06401506,546.2927968686472,548.1210876694058,1 45229U 20012BD  25303.79217856  .00009445  00000+0  65209-3 0  9991,2 45229  53.0532 229.7495 0001320  85.7846 274.3294 15.06401506315710
STARLINK-1227,45230,53.0531,0.0001326,15.06418624,546.2361849986264,548.072772298764,1 45230U 20012BE  25303.78850568  .00027894  00000+0  18832-2 0  9992,2 45230  53.0531 229.7676 0001326  87.7413 272.3728 15.06418624315832
STARLINK-1246,45235,53.0548,0.0001491,15.06395863,546.1916659159797,548.2568086369356,1 45235U 20012BK  25303.20612031  .00002057  00000+0  15693-3 0  9992,2 45235  53.0548 272.3835 0001491  91.1637 268.9523 15.06395863315198
STARLINK-1270,45237,53.0536,0.0001354,15.0639805,546.2798414099134,548.155227417833,1 45237U 20012BM  25303.07710847 -.00003171  00000+0 -19412-3 0  9996,2 45237  53.0536 232.9609 0001354  95.2308 264.8836 15.06398050315717
STARLINK-1279,45360,53.0537,0.0001772,15.33772611,463.3560807086287,465.78113557615507,1 45360U 20019A   25303.66988363  .00073126  00000+0  21974-2 0  9995,2 45360  53.0537 357.8865 0001772  26.3646 333.7444 15.33772611310579
STARLINK-1301,45361,53.0532,0.0001714,15.36238391,456.07302003329005,458.4161888472918,1 45361U 20019B   25303.69945216  .00071412  00000+0  19847-2 0  9991,2 45361  53.0532   7.4911 0001714  30.7688 329.3414 15.36238391310456
STARLINK-1306,45362,53.0507,0.0006556,15.68930731,357.5388369098091,366.37644900565465,1 45362U 20019C   25303.91668980  .00183978  00000+0  15372-2 0  9997,2 45362  53.0507 356.7760 0006556 298.7633 226.9815 15.68930731  5995
STARLINK-1262,45366,53.0574,0.0003133,15.06405985,545.0235088796999,549.362920792315,1 45366U 20019G   25302.98863318 -.00001855  00000+0 -10561-3 0  9990,2 45366  53.0574  33.3532 0003133  76.5740 283.5598 15.06405985310038
STARLINK-1273,45367,53.0556,0.0002007,15.0638629,545.8636515434728,548.6435033212547,1 45367U 20019H   25302.94441185 -.00000752  00000+0 -31582-4 0  9993,2 45367  53.0556  33.5539 0002007  97.6099 262.5118 15.06386290310029
STARLINK-1276,45368,53.0584,0.0001802,15.06397338,545.9717673165633,548.4676658772241,1 45368U 20019J   25302.98126543 -.00000101  00000+0  12153-4 0  9996,2 45368  53.0584  33.3932 0001802  81.3650 278.7544 15.06397338310039
STARLINK-1277,45369,53.0563,0.0001139,15.06421078,546.3581678145438,547.935747500097,1 45369U 20019K   25302.97394450  .00002035  00000+0  15537-3 0  9995,2 45369  53.0563  34.0517 0001139  99.0720 261.0398 15.06421078310021
STARLINK-1281,45370,53.0561,0.0001368,15.06409355,546.2355025985689,548.1302701194772,1 45370U 20019L   25302.70481221  .00001242  00000+0  10224-3 0  9998,2 45370  53.0561  34.6341 0001368  94.0905 266.0240 15.06409355309995
STARLINK-1300,45374,53.057,0.0001656,15.06387202,546.1039380259881,548.3976264594676,1 45374U 20019Q   25302.99234176  .00002076  00000+0  15827-3 0  9998,2 45374  53.0570  33.3396 0001656  92.6923 267.4256 15.06387202310034
